{
  "type": "FeatureCollection",
  "features": [
    {
      "type": "Feature",
      "properties": {
        "norad_id": 43564,
        "name": "GSAT0221 (GALILEO 25)",
        "group": "galileo",
        "lat": 35.17180886942032,
        "lon": 139.6488592271105,
        "alt_km": 23234.689865321252,
        "timestamp": "2025-12-18T14:52:08.288940+00:00",
        "meta_object_name": "GSAT0221 (GALILEO 25)",
        "meta_object_id": "2018-060A",
        "meta_epoch": "2025-12-17T19:26:26.344896",
        "meta_mean_motion": 1.7047594,
        "meta_eccentricity": 0.00067192,
        "meta_inclination": 57.2267,
        "meta_ra_of_asc_node": 346.6806,
        "meta_arg_of_pericenter": 285.1372,
        "meta_mean_anomaly": 74.8036,
        "meta_ephemeris_type": 0,
        "meta_classification_type": "U",
        "meta_norad_cat_id": 43564,
        "meta_element_set_no": 999,
        "meta_rev_at_epoch": 4607,
        "meta_bstar": 0,
        "meta_mean_motion_dot": -7.7e-07,
        "meta_mean_motion_ddot": 0,
        "tle_line1": "1 43564U 18060A   25351.81002714 -.00000077  00000+0  00000+0 0  9999",
        "tle_line2": "2 43564  57.2267 346.6806 0006719 285.1372  74.8036  1.70475940 46079"
      },
      "geometry": {
        "type": "Point",
        "coordinates": [
          139.6488592271105,
          35.17180886942032
        ]
      }
    },
    {
      "type": "Feature",
      "properties": {
        "norad_id": 43565,
        "name": "GSAT0222 (GALILEO 26)",
        "group": "galileo",
        "lat": 1.8484325410363778,
        "lon": -12.152388075332938,
        "alt_km": 23224.1785000515,
        "timestamp": "2025-12-18T14:52:08.288951+00:00",
        "meta_object_name": "GSAT0222 (GALILEO 26)",
        "meta_object_id": "2018-060B",
        "meta_epoch": "2025-12-18T00:42:17.845344",
        "meta_mean_motion": 1.70475645,
        "meta_eccentricity": 0.00060883,
        "meta_inclination": 57.23,
        "meta_ra_of_asc_node": 346.6777,
        "meta_arg_of_pericenter": 265.4214,
        "meta_mean_anomaly": 94.5238,
        "meta_ephemeris_type": 0,
        "meta_classification_type": "U",
        "meta_norad_cat_id": 43565,
        "meta_element_set_no": 999,
        "meta_rev_at_epoch": 4612,
        "meta_bstar": 0,
        "meta_mean_motion_dot": -7.6e-07,
        "meta_mean_motion_ddot": 0,
        "tle_line1": "1 43565U 18060B   25352.02937321 -.00000076  00000+0  00000+0 0  9994",
        "tle_line2": "2 43565  57.2300 346.6777 0006088 265.4214  94.5238  1.70475645 46121"
      },
      "geometry": {
        "type": "Point",
        "coordinates": [
          -12.152388075332938,
          1.8484325410363778
        ]
      }
    },
    {
      "type": "Feature",
      "properties": {
        "norad_id": 43566,
        "name": "GSAT0219 (GALILEO 23)",
        "group": "galileo",
        "lat": -37.501048020278496,
        "lon": -163.71261232890492,
        "alt_km": 23218.320764452445,
        "timestamp": "2025-12-18T14:52:08.288962+00:00",
        "meta_object_name": "GSAT0219 (GALILEO 23)",
        "meta_object_id": "2018-060C",
        "meta_epoch": "2025-12-15T21:42:00.874656",
        "meta_mean_motion": 1.70475845,
        "meta_eccentricity": 0.00058258,
        "meta_inclination": 57.2298,
        "meta_ra_of_asc_node": 346.7365,
        "meta_arg_of_pericenter": 287.9846,
        "meta_mean_anomaly": 71.9699,
        "meta_ephemeris_type": 0,
        "meta_classification_type": "U",
        "meta_norad_cat_id": 43566,
        "meta_element_set_no": 999,
        "meta_rev_at_epoch": 4606,
        "meta_bstar": 0,
        "meta_mean_motion_dot": -8.2e-07,
        "meta_mean_motion_ddot": 0,
        "tle_line1": "1 43566U 18060C   25349.90417679 -.00000082  00000+0  00000+0 0  9994",
        "tle_line2": "2 43566  57.2298 346.7365 0005825 287.9846  71.9699  1.70475845 46065"
      },
      "geometry": {
        "type": "Point",
        "coordinates": [
          -163.71261232890492,
          -37.501048020278496
        ]
      }
    },
    {
      "type": "Feature",
      "properties": {
        "norad_id": 43567,
        "name": "GSAT0220 (GALILEO 24)",
        "group": "galileo",
        "lat": 57.19661561941437,
        "lon": 78.2651152941879,
        "alt_km": 23232.81147920509,
        "timestamp": "2025-12-18T14:52:08.288973+00:00",
        "meta_object_name": "GSAT0220 (GALILEO 24)",
        "meta_object_id": "2018-060D",
        "meta_epoch": "2025-12-17T07:09:30.654144",
        "meta_mean_motion": 1.70475982,
        "meta_eccentricity": 0.00060597,
        "meta_inclination": 57.2291,
        "meta_ra_of_asc_node": 346.699,
        "meta_arg_of_pericenter": 286.0855,
        "meta_mean_anomaly": 73.8638,
        "meta_ephemeris_type": 0,
        "meta_classification_type": "U",
        "meta_norad_cat_id": 43567,
        "meta_element_set_no": 999,
        "meta_rev_at_epoch": 4607,
        "meta_bstar": 0,
        "meta_mean_motion_dot": -7.8e-07,
        "meta_mean_motion_ddot": 0,
        "tle_line1": "1 43567U 18060D   25351.29827146 -.00000078  00000+0  00000+0 0  9999",
        "tle_line2": "2 43567  57.2291 346.6990 0006059 286.0855  73.8638  1.70475982 46079"
      },
      "geometry": {
        "type": "Point",
        "coordinates": [
          78.2651152941879,
          57.19661561941437
        ]
      }
    },
    {
      "type": "Feature",
      "properties": {
        "norad_id": 49809,
        "name": "GSAT0223 (GALILEO 27)",
        "group": "galileo",
        "lat": -1.3293452904846141,
        "lon": 167.4053578295065,
        "alt_km": 23218.52561327298,
        "timestamp": "2025-12-18T14:52:08.288985+00:00",
        "meta_object_name": "GSAT0223 (GALILEO 27)",
        "meta_object_id": "2021-116A",
        "meta_epoch": "2025-12-16T20:22:21.643104",
        "meta_mean_motion": 1.70476101,
        "meta_eccentricity": 0.00044272,
        "meta_inclination": 57.2185,
        "meta_ra_of_asc_node": 346.6017,
        "meta_arg_of_pericenter": 254.1798,
        "meta_mean_anomaly": 280.7094,
        "meta_ephemeris_type": 0,
        "meta_classification_type": "U",
        "meta_norad_cat_id": 49809,
        "meta_element_set_no": 999,
        "meta_rev_at_epoch": 2507,
        "meta_bstar": 0,
        "meta_mean_motion_dot": -7.9e-07,
        "meta_mean_motion_ddot": 0,
        "tle_line1": "1 49809U 21116A   25350.84886161 -.00000079  00000+0  00000+0 0  9993",
        "tle_line2": "2 49809  57.2185 346.6017 0004427 254.1798 280.7094  1.70476101 25071"
      },
      "geometry": {
        "type": "Point",
        "coordinates": [
          167.4053578295065,
          -1.3293452904846141
        ]
      }
    },
    {
      "type": "Feature",
      "properties": {
        "norad_id": 49810,
        "name": "GSAT0224 (GALILEO 28)",
        "group": "galileo",
        "lat": -50.04787719442977,
        "lon": -63.755105423311015,
        "alt_km": 23218.479974112037,
        "timestamp": "2025-12-18T14:52:08.288996+00:00",
        "meta_object_name": "GSAT0224 (GALILEO 28)",
        "meta_object_id": "2021-116B",
        "meta_epoch": "2025-12-16T23:13:52.406688",
        "meta_mean_motion": 1.70476122,
        "meta_eccentricity": 0.00037953,
        "meta_inclination": 57.2194,
        "meta_ra_of_asc_node": 346.5971,
        "meta_arg_of_pericenter": 257.7514,
        "meta_mean_anomaly": 102.8295,
        "meta_ephemeris_type": 0,
        "meta_classification_type": "U",
        "meta_norad_cat_id": 49810,
        "meta_element_set_no": 999,
        "meta_rev_at_epoch": 2510,
        "meta_bstar": 0,
        "meta_mean_motion_dot": -7.9e-07,
        "meta_mean_motion_ddot": 0,
        "tle_line1": "1 49810U 21116B   25350.96796767 -.00000079  00000+0  00000+0 0  9990",
        "tle_line2": "2 49810  57.2194 346.5971 0003795 257.7514 102.8295  1.70476122 25107"
      },
      "geometry": {
        "type": "Point",
        "coordinates": [
          -63.755105423311015,
          -50.04787719442977
        ]
      }
    },
    {
      "type": "Feature",
      "properties": {
        "norad_id": 59598,
        "name": "GSAT0225 (GALILEO 29)",
        "group": "galileo",
        "lat": -51.67377608557187,
        "lon": 43.852651669070816,
        "alt_km": 23229.35797959076,
        "timestamp": "2025-12-18T14:52:08.289007+00:00",
        "meta_object_name": "GSAT0225 (GALILEO 29)",
        "meta_object_id": "2024-079A",
        "meta_epoch": "2025-12-16T09:22:38.225280",
        "meta_mean_motion": 1.70475011,
        "meta_eccentricity": 0.00021396,
        "meta_inclination": 55.0038,
        "meta_ra_of_asc_node": 106.1932,
        "meta_arg_of_pericenter": 182.0305,
        "meta_mean_anomaly": 176.7742,
        "meta_ephemeris_type": 0,
        "meta_classification_type": "U",
        "meta_norad_cat_id": 59598,
        "meta_element_set_no": 999,
        "meta_rev_at_epoch": 1019,
        "meta_bstar": 0,
        "meta_mean_motion_dot": -1e-07,
        "meta_mean_motion_ddot": 0,
        "tle_line1": "1 59598U 24079A   25350.39072020 -.00000010  00000+0  00000+0 0  9996",
        "tle_line2": "2 59598  55.0038 106.1932 0002139 182.0305 176.7742  1.70475011 10196"
      },
      "geometry": {
        "type": "Point",
        "coordinates": [
          43.852651669070816,
          -51.67377608557187
        ]
      }
    }
  ]
}